OBJECT_NAME,OBJECT_ID,EPOCH,MEAN_MOTION,ECCENTRICITY,INCLINATION,RA_OF_ASC_NODE,ARG_OF_PERICENTER,MEAN_ANOMALY,EPHEMERIS_TYPE,CLASSIFICATION_TYPE,NORAD_CAT_ID,ELEMENT_SET_NO,REV_AT_EPOCH,BSTAR,MEAN_MOTION_DOT,MEAN_MOTION_DDOT
HULIANWANG DIGUI-152,2026-013G,2026-06-15T05:30:17.809056,13.29330175,.0001132,50.0052,2.4257,108.3092,251.7903,0,U,67528,999,1979,.98545E-4,-.78E-6,0
HULIANWANG DIGUI-153,2026-013H,2026-06-15T05:18:15.410016,13.29329921,.0001123,50.0056,2.3846,107.5750,252.5245,0,U,67529,999,1978,.83877E-4,-.85E-6,0
HULIANWANG DIGUI-154,2026-013J,2026-06-15T06:54:28.332288,13.29330207,.0001111,50.0080,2.1050,106.8559,253.2435,0,U,67530,999,1979,.94588E-4,-.8E-6,0
STARLINK-36587,2026-014A,2026-06-15T10:04:38.692992,15.33433400,.000155,97.2856,53.2074,95.3063,264.8357,0,U,67532,999,2376,.22277E-3,.7121E-4,0
STARLINK-36417,2026-014B,2026-06-15T09:25:29.604000,15.33442462,.0001782,97.2855,53.0911,90.7949,269.3498,0,U,67533,999,2375,.55561E-3,.17904E-3,0
STARLINK-36576,2026-014C,2026-06-15T06:01:53.298048,15.33458086,.0000987,97.2841,52.9762,85.8785,274.2570,0,U,67534,999,2373,.48863E-3,.15739E-3,0
STARLINK-36574,2026-014D,2026-06-15T10:16:23.686752,15.33437688,.000218,97.2860,53.1961,91.1342,269.0150,0,U,67535,999,2376,.61611E-3,.19864E-3,0
STARLINK-36572,2026-014E,2026-06-15T06:05:49.757568,15.33462875,.0001719,97.2856,52.9728,90.5561,269.5879,0,U,67536,999,2373,.54741E-3,.17649E-3,0
STARLINK-36561,2026-014F,2026-06-15T05:54:03.832416,15.33443174,.0001818,97.2859,52.9800,73.7347,286.4096,0,U,67537,999,2373,.38057E-3,.12231E-3,0
STARLINK-36397,2026-014G,2026-06-15T05:30:34.078176,15.33428506,.0001467,97.2861,53.0027,105.6873,254.4531,0,U,67538,999,2373,.3498E-3,.11229E-3,0
STARLINK-36573,2026-014H,2026-06-15T05:50:08.973024,15.33443246,.0002141,97.2861,52.9849,105.6061,254.5418,0,U,67539,999,2373,.28857E-3,.9252E-4,0
STARLINK-36585,2026-014J,2026-06-15T10:24:13.279392,15.33437652,.0001925,97.2857,53.1872,92.1317,268.0146,0,U,67540,999,2376,.38911E-3,.12505E-3,0
STARLINK-36579,2026-014K,2026-06-15T09:37:14.528640,15.33445948,.000254,97.2857,53.2332,94.7229,265.4304,0,U,67541,999,2376,.44778E-3,.1441E-3,0
STARLINK-35934,2026-014L,2026-06-15T09:45:04.142880,15.33442098,.0001824,97.2847,53.2269,95.1484,264.9967,0,U,67542,999,2375,.5961E-3,.19217E-3,0
STARLINK-36581,2026-014M,2026-06-15T05:46:14.276064,15.33431342,.000275,97.2851,52.9921,100.0947,260.0606,0,U,67543,999,2373,.266E-3,.8519E-4,0
STARLINK-36565,2026-014N,2026-06-15T10:39:52.816320,15.33444480,.0001683,97.2857,53.1750,90.5475,269.5960,0,U,67544,999,2376,.24006E-3,.7683E-4,0
STARLINK-36583,2026-014P,2026-06-15T10:00:43.754112,15.33437302,.0001754,97.2862,53.2096,91.4926,268.6518,0,U,67545,999,2376,.8611E-4,.2705E-4,0
STARLINK-36580,2026-014Q,2026-06-15T06:09:43.104960,15.33451428,.0001145,97.2857,52.9671,121.6916,238.4438,0,U,67546,999,2373,.44028E-3,.14168E-3,0
STARLINK-36584,2026-014R,2026-06-15T03:37:01.261920,15.33459580,.00009743,97.2892,52.9629,115.8043,244.3301,0,U,67547,999,2372,.55756848E-3,.17976E-3,0
STARLINK-36586,2026-014S,2026-06-15T09:48:59.143968,15.33442341,.00022,97.2837,53.2218,81.3641,278.7851,0,U,67548,999,2376,.50564E-3,.16283E-3,0
STARLINK-36564,2026-014T,2026-06-15T06:13:38.135424,15.33451712,.0000923,97.2823,52.9683,72.8934,287.2410,0,U,67549,999,2367,.41995E-3,.1351E-3,0
STARLINK-36563,2026-014U,2026-06-15T06:33:13.076064,15.33440755,.0001952,97.2853,53.1016,95.7758,264.3707,0,U,67550,999,2374,.29958E-3,.9608E-4,0
STARLINK-36566,2026-014V,2026-06-15T06:21:28.254240,15.33449157,.0001757,97.2845,52.9598,107.2966,252.8469,0,U,67551,999,2372,.66233E-3,.21371E-3,0
STARLINK-36567,2026-014W,2026-06-15T05:14:53.729088,15.33431080,.000142,97.2860,53.0192,100.6734,259.4668,0,U,67552,999,2372,-.42705E-3,-.13831E-3,0
STARLINK-36569,2026-014X,2026-06-15T05:26:39.355296,15.33444262,.0001869,97.2857,53.0117,93.1570,266.9887,0,U,67553,999,2372,.22882E-3,.7319E-4,0
STARLINK-36395,2026-014Y,2026-06-15T12:00:02.000160,15.47344579,.0002209,97.2846,56.1269,98.3195,190.5573,0,U,67554,999,598,-.51093E-1,-.2288801E-1,0
STARLINK-36559,2026-014Z,2026-06-15T05:38:24.195264,15.33444793,.0002564,97.2854,52.9955,109.9009,250.2510,0,U,67555,999,2372,.41568E-3,.13369E-3,0
MR-2,2026-015A,2026-06-15T08:29:49.439616,13.52694228,.0005308,89.0002,268.7231,89.3000,270.8760,0,U,67556,999,1946,.72474E-4,.6E-6,0
MR-1,2026-015B,2026-06-15T08:33:40.646880,13.52668644,.0005371,89.0003,268.7231,88.4432,271.7336,0,U,67557,999,1946,.72824E-4,.6E-6,0
STARLINK-36426,2026-014AA,2026-06-15T09:33:19.430784,15.33447561,.000219,97.2846,53.2381,79.2955,280.8534,0,U,67560,999,2375,.31011E-3,.9951E-4,0
