HULIANWANG DIGUI-152    
1 67528U 26013G   26166.22937279 -.00000078  00000+0  98545-4 0  9992
2 67528  50.0052   2.4257 0001132 108.3092 251.7903 13.29330175 19799
HULIANWANG DIGUI-153    
1 67529U 26013H   26166.22101169 -.00000085  00000+0  83877-4 0  9994
2 67529  50.0056   2.3846 0001123 107.5750 252.5245 13.29329921 19783
HULIANWANG DIGUI-154    
1 67530U 26013J   26166.28782792 -.00000080  00000+0  94588-4 0  9995
2 67530  50.0080   2.1050 0001111 106.8559 253.2435 13.29330207 19792
STARLINK-36587          
1 67532U 26014A   26166.41989228  .00007121  00000+0  22277-3 0  9993
2 67532  97.2856  53.2074 0001550  95.3063 264.8357 15.33433400 23769
STARLINK-36417          
1 67533U 26014B   26166.39270375  .00017904  00000+0  55561-3 0  9999
2 67533  97.2855  53.0911 0001782  90.7949 269.3498 15.33442462 23759
STARLINK-36576          
1 67534U 26014C   26166.25131132  .00015739  00000+0  48863-3 0  9993
2 67534  97.2841  52.9762 0000987  85.8785 274.2570 15.33458086 23739
STARLINK-36574          
1 67535U 26014D   26166.42805193  .00019864  00000+0  61611-3 0  9997
2 67535  97.2860  53.1961 0002180  91.1342 269.0150 15.33437688 23765
STARLINK-36572          
1 67536U 26014E   26166.25404812  .00017649  00000+0  54741-3 0  9997
2 67536  97.2856  52.9728 0001719  90.5561 269.5879 15.33462875 23738
STARLINK-36561          
1 67537U 26014F   26166.24587769  .00012231  00000+0  38057-3 0  9994
2 67537  97.2859  52.9800 0001818  73.7347 286.4096 15.33443174 23738
STARLINK-36397          
1 67538U 26014G   26166.22956109  .00011229  00000+0  34980-3 0  9998
2 67538  97.2861  53.0027 0001467 105.6873 254.4531 15.33428506 23735
STARLINK-36573          
1 67539U 26014H   26166.24315941  .00009252  00000+0  28857-3 0  9993
2 67539  97.2861  52.9849 0002141 105.6061 254.5418 15.33443246 23738
STARLINK-36585          
1 67540U 26014J   26166.43348703  .00012505  00000+0  38911-3 0  9995
2 67540  97.2857  53.1872 0001925  92.1317 268.0146 15.33437652 23762
STARLINK-36579          
1 67541U 26014K   26166.40086260  .00014410  00000+0  44778-3 0  9995
2 67541  97.2857  53.2332 0002540  94.7229 265.4304 15.33445948 23763
STARLINK-35934          
1 67542U 26014L   26166.40629795  .00019217  00000+0  59610-3 0  9993
2 67542  97.2847  53.2269 0001824  95.1484 264.9967 15.33442098 23755
STARLINK-36581          
1 67543U 26014M   26166.24044301  .00008519  00000+0  26600-3 0  9996
2 67543  97.2851  52.9921 0002750 100.0947 260.0606 15.33431342 23736
STARLINK-36565          
1 67544U 26014N   26166.44436130  .00007683  00000+0  24006-3 0  9993
2 67544  97.2857  53.1750 0001683  90.5475 269.5960 15.33444480 23766
STARLINK-36583          
1 67545U 26014P   26166.41717308  .00002705  00000+0  86110-4 0  9995
2 67545  97.2862  53.2096 0001754  91.4926 268.6518 15.33437302 23761
STARLINK-36580          
1 67546U 26014Q   26166.25674890  .00014168  00000+0  44028-3 0  9993
2 67546  97.2857  52.9671 0001145 121.6916 238.4438 15.33451428 23738
STARLINK-36584          
1 67547U 26014R   26166.15070905  .00017976  00000+0  55757-3 0  9991
2 67547  97.2892  52.9629 0000974 115.8043 244.3301 15.33459580 23727
STARLINK-36586          
1 67548U 26014S   26166.40901787  .00016283  00000+0  50564-3 0  9992
2 67548  97.2837  53.2218 0002200  81.3641 278.7851 15.33442341 23762
STARLINK-36564          
1 67549U 26014T   26166.25946916  .00013510  00000+0  41995-3 0  9997
2 67549  97.2823  52.9683 0000923  72.8934 287.2410 15.33451712 23678
STARLINK-36563          
1 67550U 26014U   26166.27306801  .00009608  00000+0  29958-3 0  9992
2 67550  97.2853  53.1016 0001952  95.7758 264.3707 15.33440755 23745
STARLINK-36566          
1 67551U 26014V   26166.26491035  .00021371  00000+0  66233-3 0  9994
2 67551  97.2845  52.9598 0001757 107.2966 252.8469 15.33449157 23722
STARLINK-36567          
1 67552U 26014W   26166.21867742 -.00013831  00000+0 -42705-3 0  9994
2 67552  97.2860  53.0192 0001420 100.6734 259.4668 15.33431080 23729
STARLINK-36569          
1 67553U 26014X   26166.22684439  .00007319  00000+0  22882-3 0  9992
2 67553  97.2857  53.0117 0001869  93.1570 266.9887 15.33444262 23726
STARLINK-36395          
1 67554U 26014Y   26166.50002315 -.02288801  00000+0 -51093-1 0  9996
2 67554  97.2846  56.1269 0002209  98.3195 190.5573 15.47344579  5983
STARLINK-36559          
1 67555U 26014Z   26166.23500226  .00013369  00000+0  41568-3 0  9990
2 67555  97.2854  52.9955 0002564 109.9009 250.2510 15.33444793 23727
MR-2                    
1 67556U 26015A   26166.35404444  .00000060  00000+0  72474-4 0  9995
2 67556  89.0002 268.7231 0005308  89.3000 270.8760 13.52694228 19467
MR-1                    
1 67557U 26015B   26166.35672045  .00000060  00000+0  72824-4 0  9999
2 67557  89.0003 268.7231 0005371  88.4432 271.7336 13.52668644 19460
STARLINK-36426          
1 67560U 26014AA  26166.39814156  .00009951  00000+0  31011-3 0  9997
2 67560  97.2846  53.2381 0002190  79.2955 280.8534 15.33447561 23759
